GLOBALSTAR M068         
1 32266U 07048D   26008.55148087 -.00000063  00000+0  22725-3 0  9992
2 32266  51.9901  36.2295 0001001 211.5741 253.7498 12.62837890843500
GLOBALSTAR M079         
1 37188U 10054A   26008.36698418 -.00000101  00000+0  18068-4 0  9997
2 37188  52.0021 235.1884 0001119  62.4258 109.2805 12.62269831702362
GLOBALSTAR M074         
1 37189U 10054B   26008.39355433 -.00000090  00000+0  77895-4 0  9998
2 37189  51.9996 234.3984 0001137  79.4635  92.5097 12.62265252702978
GLOBALSTAR M076         
1 37190U 10054C   26008.34084045 -.00000086  00000+0  10107-3 0  9990
2 37190  52.0013 234.7493 0001263  73.9901  97.5460 12.62269162702687
GLOBALSTAR M077         
1 37191U 10054D   26008.35900559 -.00000071  00000+0  12232-3 0  9994
2 37191  51.9943 225.2537 0001684  69.1957 101.7629 11.68177343702462
GLOBALSTAR M075         
1 37192U 10054E   25358.21427079 -.00000088  00000+0  85706-4 0  9993
2 37192  52.0022 322.9423 0000480 109.7567 352.3949 12.62261317699849
GLOBALSTAR M073         
1 37193U 10054F   26008.48007361 -.00000105  00000+0 -53553-5 0  9991
2 37193  52.0034 190.4438 0001219  80.6425 303.3011 12.62268894703768
GLOBALSTAR M083         
1 37739U 11033A   26008.66872094 -.00000083  00000+0  11397-3 0  9990
2 37739  51.9848 138.3149 0000927  93.1639  10.3198 12.62266421672801
GLOBALSTAR M088         
1 37740U 11033B   26008.38546616 -.00000086  00000+0  96764-4 0  9994
2 37740  52.0229  45.2179 0000394 134.6831 240.5372 12.62271468668319
GLOBALSTAR M091         
1 37741U 11033C   26008.34692041 -.00000101  00000+0  13056-4 0  9996
2 37741  52.0023   8.5388 0000128  58.6302  80.4399 12.62268476669090
GLOBALSTAR M085         
1 37742U 11033D   26008.57834675 -.00000078  00000+0  14115-3 0  9992
2 37742  52.0149 318.9869 0000535  28.0534 143.7520 12.62267844669639
GLOBALSTAR M081         
1 37743U 11033E   25351.59018587 -.00000087  00000+0  92331-4 0  9998
2 37743  51.9980  28.5496 0000222  94.7932  71.3857 12.62270971667009
GLOBALSTAR M089         
1 37744U 11033F   26008.48550200 -.00000080  00000+0  13322-3 0  9995
2 37744  51.9937 276.0770 0000956  79.4606  91.0633 12.62263393670611
GLOBALSTAR M084         
1 38040U 11080A   26008.62257551 -.00000092  00000+0  64567-4 0  9997
2 38040  52.0007 143.0544 0001229 108.7193 264.2798 12.62267127648614
GLOBALSTAR M080         
1 38041U 11080B   26008.67341131 -.00000097  00000+0  38904-4 0  9992
2 38041  52.0050 144.5625 0000511 115.5916 258.3166 12.62265424648746
GLOBALSTAR M082         
1 38042U 11080C   26008.53030557 -.00000089  00000+0  80564-4 0  9995
2 38042  52.0079 100.4823 0000421 129.8187 243.2071 12.62266443649434
GLOBALSTAR M092         
1 38043U 11080D   26008.50520765 -.00000104  00000+0 -39931-5 0  9990
2 38043  52.0062 190.9471 0001044  90.2040 288.5270 12.62269263647884
GLOBALSTAR M090         
1 38044U 11080E   26008.55710941 -.00000086  00000+0  98288-4 0  9990
2 38044  52.0131  94.3060 0000618 107.8748 265.8259 12.62265653649559
GLOBALSTAR M086         
1 38045U 11080F   26008.50169334 -.00000083  00000+0  11801-3 0  9992
2 38045  51.9902  94.6642 0001543  76.2561 296.8084 12.62281897649494
GLOBALSTAR M097         
1 39072U 13005A   26008.44806627 -.00000090  00000+0  74363-4 0  9999
2 39072  52.0069   9.5949 0000375  60.2803 299.8101 12.62268059596736
GLOBALSTAR M093         
1 39073U 13005B   26008.34273063 -.00000089  00000+0  80035-4 0  9992
2 39073  52.0132   3.2030 0000509  29.6196 330.4699 12.62271531596679
GLOBALSTAR M094         
1 39074U 13005C   26008.42186802 -.00000080  00000+0  13110-3 0  9996
2 39074  51.9965 277.2405 0000920  47.8494 312.2451 12.62265767598299
GLOBALSTAR M096         
1 39075U 13005D   26008.59322107 -.00000082  00000+0  12116-3 0  9992
2 39075  52.0096 325.3906 0000597  31.0659 329.0243 12.62269800597236
GLOBALSTAR M078         
1 39076U 13005E   26008.48797811 -.00000012  00000+0  51128-3 0  9998
2 39076  51.9885  49.9429 0000512 259.7128 100.3681 12.62272592595840
GLOBALSTAR M095         
1 39077U 13005F   26008.35596244 -.00000093  00000+0  58695-4 0  9998
2 39077  52.0096  47.7222 0000099   9.0678 351.0191 12.62267682595687
GLOBALSTAR M087         
1 52888U 22064A   26008.52746326 -.00000114  00000+0 -59247-4 0  9994
2 52888  51.9971 188.5294 0000992  77.9723 282.1255 12.62262295170973
